OBJECT_NAME,OBJECT_ID,EPOCH,MEAN_MOTION,ECCENTRICITY,INCLINATION,RA_OF_ASC_NODE,ARG_OF_PERICENTER,MEAN_ANOMALY,EPHEMERIS_TYPE,CLASSIFICATION_TYPE,NORAD_CAT_ID,ELEMENT_SET_NO,REV_AT_EPOCH,BSTAR,MEAN_MOTION_DOT,MEAN_MOTION_DDOT
INTELSAT 21 (IS-21),2012-045A,2026-06-07T18:17:05.025408,1.00272348,.0002014,0.0447,87.2174,357.1505,28.0822,0,U,38749,999,5043,0,-.27E-5,0
INTELSAT 23 (IS-23),2012-057A,2026-06-07T18:18:34.882272,1.00275593,.0000552,0.0140,333.0333,118.3225,26.4523,0,U,38867,999,4986,0,-.27E-5,0
FM-6,2013-058A,2026-06-07T11:09:47.147328,1.00260608,.0001559,0.0094,45.4890,95.5877,165.8953,0,U,39360,999,4597,0,0,0
INTELSAT 30 (IS-30),2014-062A,2026-06-07T12:58:30.649728,1.00271823,.0001065,0.0218,41.9024,4.4015,309.1838,0,U,40271,999,669,0,-.136E-5,0
DIRECTV 14,2014-078B,2026-06-07T14:40:04.078848,1.00270219,.000049,0.0091,355.2151,185.8588,195.7159,0,U,40333,999,4194,0,-.111E-5,0
DIRECTV 15,2015-026A,2026-06-07T11:16:38.235936,1.00271546,.000043,0.0180,0.9006,228.5203,92.7414,0,U,40663,999,4036,0,-.88E-6,0
SKY MEXICO-1,2015-026B,2026-06-07T13:03:00.221184,1.00271749,.0002251,0.0169,51.5808,42.6595,278.6633,0,U,40664,999,4035,0,-.22E-5,0
INTELSAT 34 (IS-34),2015-039A,2026-06-07T18:17:49.953408,1.00271453,.0000525,0.0104,319.7013,42.0234,113.4137,0,U,40874,999,3954,0,-.27E-5,0
INTELSAT 31 (IS-31),2016-035A,2026-06-07T09:33:16.570080,1.00271889,.0000826,0.0186,259.0986,334.9690,70.0155,0,U,41581,999,3658,0,-.137E-5,0
INTELSAT 36 (IS-36),2016-053A,2026-06-07T12:02:27.926304,1.00271488,.0001812,0.0098,351.0872,347.2262,166.7081,0,U,41747,999,3586,0,-.1E-6,0
INTELSAT 32E (IS-32E),2017-007B,2026-06-07T18:21:19.616832,1.00270608,.0000678,0.0010,354.1974,347.1216,147.0062,0,U,41945,999,3413,0,-.254E-5,0
INTELSAT 35E (IS-35E),2017-041A,2026-06-07T16:41:08.837088,1.00272821,.0001842,0.0202,62.5317,13.9992,35.3772,0,U,42818,999,3272,0,-.223E-5,0
INTELSAT 37E (IS-37E),2017-059A,2026-06-07T20:11:11.330304,1.00268311,.0002418,0.0179,344.9665,116.1683,79.9053,0,U,42950,999,3197,0,0,0
AZERSPACE 2 (IS-38),2018-074A,2026-06-07T18:46:30.101376,1.00271088,.0001468,0.0193,317.7889,115.6613,149.4697,0,U,43632,999,2835,0,.151E-5,0
HORIZONS-3E,2018-074B,2026-06-07T15:56:29.180832,1.00271165,.0000872,0.0025,269.3611,3.8203,31.0023,0,U,43633,999,2824,0,-.16E-6,0
AT&T T-16,2019-034A,2026-06-07T09:31:31.738368,1.00271029,.0000497,0.0211,62.8087,205.3448,29.6836,0,U,44333,999,2553,0,-.101E-5,0
INTELSAT 39 (IS-39),2019-049B,2026-06-07T20:38:51.311040,1.00270950,.0000793,0.0184,313.9434,4.1239,309.8638,0,U,44476,999,2503,0,.48E-6,0
GALAXY 30 (G-30),2020-056C,2026-06-07T17:58:02.449344,1.00272738,.0002255,0.0181,357.7373,76.6816,326.2340,0,U,46114,999,2119,0,.51E-6,0
GALAXY 33 (G-33),2022-128A,2026-06-07T17:55:40.176192,1.00272418,.0001879,0.0260,57.3204,19.7794,314.9812,0,U,54026,999,1364,0,.94E-6,0
GALAXY 34 (G-34),2022-128B,2026-06-07T16:14:12.484032,1.00276145,.0001938,0.0089,327.1058,125.3238,278.2116,0,U,54027,999,1381,0,.73E-6,0
GALAXY 31 (G-31),2022-153A,2026-06-07T16:16:19.778880,1.00272348,.0001355,0.0317,103.7573,334.3280,301.0814,0,U,54243,999,703,0,.28E-6,0
GALAXY 32 (G-32),2022-153B,2026-06-07T11:17:01.453344,1.00270572,.00022,0.0092,330.8066,66.7511,296.5788,0,U,54244,999,1304,0,-.16E-5,0
GALAXY 35 (G-35),2022-170A,2026-06-07T12:59:08.092032,1.00271725,.0002144,0.0207,77.1642,2.8403,277.6312,0,U,54741,999,1279,0,-.148E-5,0
GALAXY 36 (G-36),2022-170B,2026-06-07T14:42:56.305152,1.00271440,.0002759,0.0044,278.1981,164.0915,305.4688,0,U,54742,999,1267,0,-.171E-5,0
GALAXY 37 (G-37),2023-112A,2026-06-07T16:14:42.436320,1.00271575,.0002017,0.0150,330.7585,106.9381,295.0638,0,U,57493,999,1044,0,.63E-6,0
